STARLINK-36713          
1 67701U 26025J   26067.88866616  .00293779  00000+0  19031-2 0  9998
2 67701  97.2846 179.4234 0002723  52.0751 308.0760 15.75194198  5822
STARLINK-36695          
1 67702U 26025K   26067.25550014  .00371337  00000+0  23715-2 0  9993
2 67702  97.2852 178.7532 0001417 120.6391 239.5015 15.75309702  5712
STARLINK-36630          
1 67703U 26025L   26067.91668981 -.00023221  00000+0 -15514-3 0  9997
2 67703  97.2850 179.5437 0001486  97.8125 273.1368 15.75204370  5732
STARLINK-36338          
1 67704U 26025M   26067.86925143  .00231666  00000+0  15093-2 0  9991
2 67704  97.2844 179.4478 0001740  85.9540 274.1924 15.75235097  5810
STARLINK-36316          
1 67705U 26025N   26067.87913312  .00189827  00000+0  12435-2 0  9996
2 67705  97.2838 179.4344 0001851  79.7660 280.3814 15.75225924  5818
STARLINK-36707          
1 67706U 26025P   26067.85937084  .00205843  00000+0  13451-2 0  9993
2 67706  97.2844 179.4605 0001715  61.2287 298.9151 15.75237950  5817
STARLINK-36645          
1 67707U 26025Q   26067.81948704  .00374815  00000+0  24067-2 0  9992
2 67707  97.2841 179.3630 0001580  95.3767 264.7679 15.75174729  5802
STARLINK-36287          
1 67708U 26025R   26067.91668981  .00050694  00000+0  33863-3 0  9991
2 67708  97.2854 179.5518 0001751  88.1916 306.7008 15.75196321  5894
STARLINK-36698          
1 67709U 26025S   26067.91668981 -.00034524  00000+0 -23129-3 0  9992
2 67709  97.2848 179.5713 0001466  84.2619 354.6682 15.75213691  5738
STARLINK-36344          
1 67710U 26025T   26067.85513655  .00410424  00000+0  26221-2 0  9994
2 67710  97.2840 179.4674 0001819  82.2770 277.8702 15.75193019  5825
STARLINK-36687          
1 67711U 26025U   26067.89155344  .00174933  00000+0  89288-3 0  9991
2 67711  97.2855 179.5713 0001106  88.3841 271.7554 15.80888112  5832
STARLINK-36705          
1 67712U 26025V   26067.86325452  .00247679  00000+0  16103-2 0  9991
2 67712  97.2848 179.4520 0001790  80.7708 279.3759 15.75238782  5812
