CCSDS_OMM_VERS = 2.0
CREATION_DATE  = 
ORIGINATOR     = 

OBJECT_NAME    = STARLINK-36713
OBJECT_ID      = 2026-025J
CENTER_NAME    = EARTH
REF_FRAME      = TEME
TIME_SYSTEM    = UTC
MEAN_ELEMENT_THEORY = SGP/SGP4

EPOCH          = 2026-03-08T21:19:40.756224
MEAN_MOTION    = 15.75194198
ECCENTRICITY   = .00027231
INCLINATION    = 97.2846
RA_OF_ASC_NODE = 179.4234
ARG_OF_PERICENTER = 52.0751
MEAN_ANOMALY   = 308.0760

EPHEMERIS_TYPE = 0
CLASSIFICATION_TYPE = U
NORAD_CAT_ID   = 67701
ELEMENT_SET_NO = 999
REV_AT_EPOCH   = 582
BSTAR          = .19030833E-2
MEAN_MOTION_DOT = .293779E-2
MEAN_MOTION_DDOT = 0

CCSDS_OMM_VERS = 2.0
CREATION_DATE  = 
ORIGINATOR     = 

OBJECT_NAME    = STARLINK-36695
OBJECT_ID      = 2026-025K
CENTER_NAME    = EARTH
REF_FRAME      = TEME
TIME_SYSTEM    = UTC
MEAN_ELEMENT_THEORY = SGP/SGP4

EPOCH          = 2026-03-08T06:07:55.212096
MEAN_MOTION    = 15.75309702
ECCENTRICITY   = .00014178
INCLINATION    = 97.2852
RA_OF_ASC_NODE = 178.7532
ARG_OF_PERICENTER = 120.6391
MEAN_ANOMALY   = 239.5015

EPHEMERIS_TYPE = 0
CLASSIFICATION_TYPE = U
NORAD_CAT_ID   = 67702
ELEMENT_SET_NO = 999
REV_AT_EPOCH   = 571
BSTAR          = .23714841E-2
MEAN_MOTION_DOT = .371337E-2
MEAN_MOTION_DDOT = 0

CCSDS_OMM_VERS = 2.0
CREATION_DATE  = 
ORIGINATOR     = 

OBJECT_NAME    = STARLINK-36630
OBJECT_ID      = 2026-025L
CENTER_NAME    = EARTH
REF_FRAME      = TEME
TIME_SYSTEM    = UTC
MEAN_ELEMENT_THEORY = SGP/SGP4

EPOCH          = 2026-03-08T22:00:01.999584
MEAN_MOTION    = 15.75204370
ECCENTRICITY   = .00014867
INCLINATION    = 97.2850
RA_OF_ASC_NODE = 179.5437
ARG_OF_PERICENTER = 97.8125
MEAN_ANOMALY   = 273.1368

EPHEMERIS_TYPE = 0
CLASSIFICATION_TYPE = U
NORAD_CAT_ID   = 67703
ELEMENT_SET_NO = 999
REV_AT_EPOCH   = 573
BSTAR          = -.15513603E-3
MEAN_MOTION_DOT = -.23221E-3
MEAN_MOTION_DDOT = 0

CCSDS_OMM_VERS = 2.0
CREATION_DATE  = 
ORIGINATOR     = 

OBJECT_NAME    = STARLINK-36338
OBJECT_ID      = 2026-025M
CENTER_NAME    = EARTH
REF_FRAME      = TEME
TIME_SYSTEM    = UTC
MEAN_ELEMENT_THEORY = SGP/SGP4

EPOCH          = 2026-03-08T20:51:43.323552
MEAN_MOTION    = 15.75235097
ECCENTRICITY   = .00017404
INCLINATION    = 97.2844
RA_OF_ASC_NODE = 179.4478
ARG_OF_PERICENTER = 85.9540
MEAN_ANOMALY   = 274.1924

EPHEMERIS_TYPE = 0
CLASSIFICATION_TYPE = U
NORAD_CAT_ID   = 67704
ELEMENT_SET_NO = 999
REV_AT_EPOCH   = 581
BSTAR          = .15093449E-2
MEAN_MOTION_DOT = .231666E-2
MEAN_MOTION_DDOT = 0

CCSDS_OMM_VERS = 2.0
CREATION_DATE  = 
ORIGINATOR     = 

OBJECT_NAME    = STARLINK-36316
OBJECT_ID      = 2026-025N
CENTER_NAME    = EARTH
REF_FRAME      = TEME
TIME_SYSTEM    = UTC
MEAN_ELEMENT_THEORY = SGP/SGP4

EPOCH          = 2026-03-08T21:05:57.101568
MEAN_MOTION    = 15.75225924
ECCENTRICITY   = .00018514
INCLINATION    = 97.2838
RA_OF_ASC_NODE = 179.4344
ARG_OF_PERICENTER = 79.7660
MEAN_ANOMALY   = 280.3814

EPHEMERIS_TYPE = 0
CLASSIFICATION_TYPE = U
NORAD_CAT_ID   = 67705
ELEMENT_SET_NO = 999
REV_AT_EPOCH   = 581
BSTAR          = .12435129E-2
MEAN_MOTION_DOT = .189827E-2
MEAN_MOTION_DDOT = 0

CCSDS_OMM_VERS = 2.0
CREATION_DATE  = 
ORIGINATOR     = 

OBJECT_NAME    = STARLINK-36707
OBJECT_ID      = 2026-025P
CENTER_NAME    = EARTH
REF_FRAME      = TEME
TIME_SYSTEM    = UTC
MEAN_ELEMENT_THEORY = SGP/SGP4

EPOCH          = 2026-03-08T20:37:29.640576
MEAN_MOTION    = 15.75237950
ECCENTRICITY   = .00017159
INCLINATION    = 97.2844
RA_OF_ASC_NODE = 179.4605
ARG_OF_PERICENTER = 61.2287
MEAN_ANOMALY   = 298.9151

EPHEMERIS_TYPE = 0
CLASSIFICATION_TYPE = U
NORAD_CAT_ID   = 67706
ELEMENT_SET_NO = 999
REV_AT_EPOCH   = 581
BSTAR          = .13451265E-2
MEAN_MOTION_DOT = .205843E-2
MEAN_MOTION_DDOT = 0

CCSDS_OMM_VERS = 2.0
CREATION_DATE  = 
ORIGINATOR     = 

OBJECT_NAME    = STARLINK-36645
OBJECT_ID      = 2026-025Q
CENTER_NAME    = EARTH
REF_FRAME      = TEME
TIME_SYSTEM    = UTC
MEAN_ELEMENT_THEORY = SGP/SGP4

EPOCH          = 2026-03-08T19:40:03.680256
MEAN_MOTION    = 15.75174729
ECCENTRICITY   = .00015801
INCLINATION    = 97.2841
RA_OF_ASC_NODE = 179.3630
ARG_OF_PERICENTER = 95.3767
MEAN_ANOMALY   = 264.7679

EPHEMERIS_TYPE = 0
CLASSIFICATION_TYPE = U
NORAD_CAT_ID   = 67707
ELEMENT_SET_NO = 999
REV_AT_EPOCH   = 580
BSTAR          = .24066885E-2
MEAN_MOTION_DOT = .374815E-2
MEAN_MOTION_DDOT = 0

CCSDS_OMM_VERS = 2.0
CREATION_DATE  = 
ORIGINATOR     = 

OBJECT_NAME    = STARLINK-36287
OBJECT_ID      = 2026-025R
CENTER_NAME    = EARTH
REF_FRAME      = TEME
TIME_SYSTEM    = UTC
MEAN_ELEMENT_THEORY = SGP/SGP4

EPOCH          = 2026-03-08T22:00:01.999584
MEAN_MOTION    = 15.75196321
ECCENTRICITY   = .00017516
INCLINATION    = 97.2854
RA_OF_ASC_NODE = 179.5518
ARG_OF_PERICENTER = 88.1916
MEAN_ANOMALY   = 306.7008

EPHEMERIS_TYPE = 0
CLASSIFICATION_TYPE = U
NORAD_CAT_ID   = 67708
ELEMENT_SET_NO = 999
REV_AT_EPOCH   = 589
BSTAR          = .33862534E-3
MEAN_MOTION_DOT = .50694E-3
MEAN_MOTION_DDOT = 0

CCSDS_OMM_VERS = 2.0
CREATION_DATE  = 
ORIGINATOR     = 

OBJECT_NAME    = STARLINK-36698
OBJECT_ID      = 2026-025S
CENTER_NAME    = EARTH
REF_FRAME      = TEME
TIME_SYSTEM    = UTC
MEAN_ELEMENT_THEORY = SGP/SGP4

EPOCH          = 2026-03-08T22:00:01.999584
MEAN_MOTION    = 15.75213691
ECCENTRICITY   = .0001466
INCLINATION    = 97.2848
RA_OF_ASC_NODE = 179.5713
ARG_OF_PERICENTER = 84.2619
MEAN_ANOMALY   = 354.6682

EPHEMERIS_TYPE = 0
CLASSIFICATION_TYPE = U
NORAD_CAT_ID   = 67709
ELEMENT_SET_NO = 999
REV_AT_EPOCH   = 573
BSTAR          = -.2312857E-3
MEAN_MOTION_DOT = -.34524E-3
MEAN_MOTION_DDOT = 0

CCSDS_OMM_VERS = 2.0
CREATION_DATE  = 
ORIGINATOR     = 

OBJECT_NAME    = STARLINK-36344
OBJECT_ID      = 2026-025T
CENTER_NAME    = EARTH
REF_FRAME      = TEME
TIME_SYSTEM    = UTC
MEAN_ELEMENT_THEORY = SGP/SGP4

EPOCH          = 2026-03-08T20:31:23.797920
MEAN_MOTION    = 15.75193019
ECCENTRICITY   = .00018194
INCLINATION    = 97.2840
RA_OF_ASC_NODE = 179.4674
ARG_OF_PERICENTER = 82.2770
MEAN_ANOMALY   = 277.8702

EPHEMERIS_TYPE = 0
CLASSIFICATION_TYPE = U
NORAD_CAT_ID   = 67710
ELEMENT_SET_NO = 999
REV_AT_EPOCH   = 582
BSTAR          = .26220817E-2
MEAN_MOTION_DOT = .410424E-2
MEAN_MOTION_DDOT = 0

CCSDS_OMM_VERS = 2.0
CREATION_DATE  = 
ORIGINATOR     = 

OBJECT_NAME    = STARLINK-36687
OBJECT_ID      = 2026-025U
CENTER_NAME    = EARTH
REF_FRAME      = TEME
TIME_SYSTEM    = UTC
MEAN_ELEMENT_THEORY = SGP/SGP4

EPOCH          = 2026-03-08T21:23:50.217216
MEAN_MOTION    = 15.80888112
ECCENTRICITY   = .0001106
INCLINATION    = 97.2855
RA_OF_ASC_NODE = 179.5713
ARG_OF_PERICENTER = 88.3841
MEAN_ANOMALY   = 271.7554

EPHEMERIS_TYPE = 0
CLASSIFICATION_TYPE = U
NORAD_CAT_ID   = 67711
ELEMENT_SET_NO = 999
REV_AT_EPOCH   = 583
BSTAR          = .89287893E-3
MEAN_MOTION_DOT = .174933E-2
MEAN_MOTION_DDOT = 0

CCSDS_OMM_VERS = 2.0
CREATION_DATE  = 
ORIGINATOR     = 

OBJECT_NAME    = STARLINK-36705
OBJECT_ID      = 2026-025V
CENTER_NAME    = EARTH
REF_FRAME      = TEME
TIME_SYSTEM    = UTC
MEAN_ELEMENT_THEORY = SGP/SGP4

EPOCH          = 2026-03-08T20:43:05.190528
MEAN_MOTION    = 15.75238782
ECCENTRICITY   = .00017908
INCLINATION    = 97.2848
RA_OF_ASC_NODE = 179.4520
ARG_OF_PERICENTER = 80.7708
MEAN_ANOMALY   = 279.3759

EPHEMERIS_TYPE = 0
CLASSIFICATION_TYPE = U
NORAD_CAT_ID   = 67712
ELEMENT_SET_NO = 999
REV_AT_EPOCH   = 581
BSTAR          = .16103082E-2
MEAN_MOTION_DOT = .247679E-2
MEAN_MOTION_DDOT = 0

